{
  "type": "FeatureCollection",
  "features": [
    {
      "type": "Feature",
      "properties": {
        "norad_id": 67018,
        "name": "STARLINK-36106",
        "group": "last-30-days",
        "lat": 8.623489445264017,
        "lon": 99.6110441177261,
        "alt_km": 356.50104654040024,
        "timestamp": "2025-12-26T22:28:04.500548+00:00",
        "meta_object_name": "STARLINK-36106",
        "meta_object_id": "2025-293R",
        "meta_epoch": "2025-12-26T18:00:02.998944",
        "meta_mean_motion": 15.719991,
        "meta_eccentricity": 0.0003534,
        "meta_inclination": 69.9961,
        "meta_ra_of_asc_node": 283.3027,
        "meta_arg_of_pericenter": 262.5929,
        "meta_mean_anomaly": 295.3553,
        "meta_ephemeris_type": 0,
        "meta_classification_type": "U",
        "meta_norad_cat_id": 67018,
        "meta_element_set_no": 999,
        "meta_rev_at_epoch": 247,
        "meta_bstar": -0.013928,
        "meta_mean_motion_dot": -0.01623793,
        "meta_mean_motion_ddot": 0,
        "tle_line1": "1 67018U 25293R   25360.75003471 -.01623793  00000+0 -13928-1 0  9992",
        "tle_line2": "2 67018  69.9961 283.3027 0003534 262.5929 295.3553 15.71999100  2476"
      },
      "geometry": {
        "type": "Point",
        "coordinates": [
          99.6110441177261,
          8.623489445264017
        ]
      }
    },
    {
      "type": "Feature",
      "properties": {
        "norad_id": 67019,
        "name": "STARLINK-35688",
        "group": "last-30-days",
        "lat": 6.596377360572177,
        "lon": 100.36079031895908,
        "alt_km": 356.68909025293306,
        "timestamp": "2025-12-26T22:28:04.500558+00:00",
        "meta_object_name": "STARLINK-35688",
        "meta_object_id": "2025-293S",
        "meta_epoch": "2025-12-26T18:00:02.998944",
        "meta_mean_motion": 15.71983504,
        "meta_eccentricity": 0.0003434,
        "meta_inclination": 69.9959,
        "meta_ra_of_asc_node": 283.2998,
        "meta_arg_of_pericenter": 261.1666,
        "meta_mean_anomaly": 298.9493,
        "meta_ephemeris_type": 0,
        "meta_classification_type": "U",
        "meta_norad_cat_id": 67019,
        "meta_element_set_no": 999,
        "meta_rev_at_epoch": 255,
        "meta_bstar": -0.013908,
        "meta_mean_motion_dot": -0.01620672,
        "meta_mean_motion_ddot": 0,
        "tle_line1": "1 67019U 25293S   25360.75003471 -.01620672  00000+0 -13908-1 0  9994",
        "tle_line2": "2 67019  69.9959 283.2998 0003434 261.1666 298.9493 15.71983504  2554"
      },
      "geometry": {
        "type": "Point",
        "coordinates": [
          100.36079031895908,
          6.596377360572177
        ]
      }
    },
    {
      "type": "Feature",
      "properties": {
        "norad_id": 67020,
        "name": "STARLINK-36172",
        "group": "last-30-days",
        "lat": 4.280131066010749,
        "lon": 101.21034540339234,
        "alt_km": 357.01391816422984,
        "timestamp": "2025-12-26T22:28:04.500570+00:00",
        "meta_object_name": "STARLINK-36172",
        "meta_object_id": "2025-293T",
        "meta_epoch": "2025-12-26T18:00:02.998944",
        "meta_mean_motion": 15.71959248,
        "meta_eccentricity": 0.000352,
        "meta_inclination": 69.9959,
        "meta_ra_of_asc_node": 283.2972,
        "meta_arg_of_pericenter": 261.7389,
        "meta_mean_anomaly": 300.8606,
        "meta_ephemeris_type": 0,
        "meta_classification_type": "U",
        "meta_norad_cat_id": 67020,
        "meta_element_set_no": 999,
        "meta_rev_at_epoch": 247,
        "meta_bstar": -0.013972,
        "meta_mean_motion_dot": -0.01625973,
        "meta_mean_motion_ddot": 0,
        "tle_line1": "1 67020U 25293T   25360.75003471 -.01625973  00000+0 -13972-1 0  9996",
        "tle_line2": "2 67020  69.9959 283.2972 0003520 261.7389 300.8606 15.71959248  2470"
      },
      "geometry": {
        "type": "Point",
        "coordinates": [
          101.21034540339234,
          4.280131066010749
        ]
      }
    },
    {
      "type": "Feature",
      "properties": {
        "norad_id": 67021,
        "name": "STARLINK-36184",
        "group": "last-30-days",
        "lat": 2.0834873317795433,
        "lon": 102.01028298851233,
        "alt_km": 357.2391832440462,
        "timestamp": "2025-12-26T22:28:04.500580+00:00",
        "meta_object_name": "STARLINK-36184",
        "meta_object_id": "2025-293U",
        "meta_epoch": "2025-12-26T18:00:02.998944",
        "meta_mean_motion": 15.71932248,
        "meta_eccentricity": 0.0003412,
        "meta_inclination": 69.9959,
        "meta_ra_of_asc_node": 283.2941,
        "meta_arg_of_pericenter": 260.272,
        "meta_mean_anomaly": 304.6808,
        "meta_ephemeris_type": 0,
        "meta_classification_type": "U",
        "meta_norad_cat_id": 67021,
        "meta_element_set_no": 999,
        "meta_rev_at_epoch": 247,
        "meta_bstar": -0.013936,
        "meta_mean_motion_dot": -0.0162043,
        "meta_mean_motion_ddot": 0,
        "tle_line1": "1 67021U 25293U   25360.75003471 -.01620430  00000+0 -13936-1 0  9990",
        "tle_line2": "2 67021  69.9959 283.2941 0003412 260.2720 304.6808 15.71932248  2477"
      },
      "geometry": {
        "type": "Point",
        "coordinates": [
          102.01028298851233,
          2.0834873317795433
        ]
      }
    },
    {
      "type": "Feature",
      "properties": {
        "norad_id": 67022,
        "name": "STARLINK-36209",
        "group": "last-30-days",
        "lat": -0.32280954861493966,
        "lon": 102.88422020614568,
        "alt_km": 357.5357620931454,
        "timestamp": "2025-12-26T22:28:04.500592+00:00",
        "meta_object_name": "STARLINK-36209",
        "meta_object_id": "2025-293V",
        "meta_epoch": "2025-12-26T18:00:02.998944",
        "meta_mean_motion": 15.71897663,
        "meta_eccentricity": 0.0003472,
        "meta_inclination": 69.9958,
        "meta_ra_of_asc_node": 283.291,
        "meta_arg_of_pericenter": 259.9196,
        "meta_mean_anomaly": 307.6171,
        "meta_ephemeris_type": 0,
        "meta_classification_type": "U",
        "meta_norad_cat_id": 67022,
        "meta_element_set_no": 999,
        "meta_rev_at_epoch": 247,
        "meta_bstar": -0.013953,
        "meta_mean_motion_dot": -0.01620183,
        "meta_mean_motion_ddot": 0,
        "tle_line1": "1 67022U 25293V   25360.75003471 -.01620183  00000+0 -13953-1 0  9995",
        "tle_line2": "2 67022  69.9958 283.2910 0003472 259.9196 307.6171 15.71897663  2478"
      },
      "geometry": {
        "type": "Point",
        "coordinates": [
          102.88422020614568,
          -0.32280954861493966
        ]
      }
    },
    {
      "type": "Feature",
      "properties": {
        "norad_id": 67023,
        "name": "STARLINK-36191",
        "group": "last-30-days",
        "lat": -2.4649607987940705,
        "lon": 103.66174756136868,
        "alt_km": 357.81188942216795,
        "timestamp": "2025-12-26T22:28:04.500604+00:00",
        "meta_object_name": "STARLINK-36191",
        "meta_object_id": "2025-293W",
        "meta_epoch": "2025-12-26T18:00:02.998944",
        "meta_mean_motion": 15.71879869,
        "meta_eccentricity": 0.0003465,
        "meta_inclination": 69.9959,
        "meta_ra_of_asc_node": 283.2875,
        "meta_arg_of_pericenter": 260.8188,
        "meta_mean_anomaly": 309.0095,
        "meta_ephemeris_type": 0,
        "meta_classification_type": "U",
        "meta_norad_cat_id": 67023,
        "meta_element_set_no": 999,
        "meta_rev_at_epoch": 236,
        "meta_bstar": -0.013984,
        "meta_mean_motion_dot": -0.01622264,
        "meta_mean_motion_ddot": 0,
        "tle_line1": "1 67023U 25293W   25360.75003471 -.01622264  00000+0 -13984-1 0  9992",
        "tle_line2": "2 67023  69.9959 283.2875 0003465 260.8188 309.0095 15.71879869  2361"
      },
      "geometry": {
        "type": "Point",
        "coordinates": [
          103.66174756136868,
          -2.4649607987940705
        ]
      }
    },
    {
      "type": "Feature",
      "properties": {
        "norad_id": 67024,
        "name": "STARLINK-36192",
        "group": "last-30-days",
        "lat": -4.761820241021263,
        "lon": 104.50103444413871,
        "alt_km": 358.1129798857064,
        "timestamp": "2025-12-26T22:28:04.500615+00:00",
        "meta_object_name": "STARLINK-36192",
        "meta_object_id": "2025-293X",
        "meta_epoch": "2025-12-26T14:00:04.000032",
        "meta_mean_motion": 15.72434304,
        "meta_eccentricity": 0.0003784,
        "meta_inclination": 69.9959,
        "meta_ra_of_asc_node": 283.7562,
        "meta_arg_of_pericenter": 263.438,
        "meta_mean_anomaly": 85.931,
        "meta_ephemeris_type": 0,
        "meta_classification_type": "U",
        "meta_norad_cat_id": 67024,
        "meta_element_set_no": 999,
        "meta_rev_at_epoch": 244,
        "meta_bstar": -0.01362774,
        "meta_mean_motion_dot": -0.01619409,
        "meta_mean_motion_ddot": 0,
        "tle_line1": "1 67024U 25293X   25360.58337963 -.01619409  00000+0 -13628-1 0  9992",
        "tle_line2": "2 67024  69.9959 283.7562 0003784 263.4380  85.9310 15.72434304  2448"
      },
      "geometry": {
        "type": "Point",
        "coordinates": [
          104.50103444413871,
          -4.761820241021263
        ]
      }
    }
  ]
}